[{"OBJECT_NAME":"JILIN-1 GAOFEN 03D48","OBJECT_ID":"2022-167P","EPOCH":"2026-03-09T23:48:37.804608","MEAN_MOTION":15.32947339,"ECCENTRICITY":0.00075954,"INCLINATION":97.6781,"RA_OF_ASC_NODE":234.4968,"ARG_OF_PERICENTER":111.3084,"MEAN_ANOMALY":248.8969,"EPHEMERIS_TYPE":0,"CLASSIFICATION_TYPE":"U","NORAD_CAT_ID":54695,"ELEMENT_SET_NO":999,"REV_AT_EPOCH":18018,"BSTAR":0.00049677114,"MEAN_MOTION_DOT":0.00015755,"MEAN_MOTION_DDOT":0},{"OBJECT_NAME":"STARLINK-30529","OBJECT_ID":"2023-156V","EPOCH":"2026-03-09T14:14:05.758080","MEAN_MOTION":15.30190563,"ECCENTRICITY":0.000107,"INCLINATION":53.1595,"RA_OF_ASC_NODE":168.9287,"ARG_OF_PERICENTER":83.7838,"MEAN_ANOMALY":276.3285,"EPHEMERIS_TYPE":0,"CLASSIFICATION_TYPE":"U","NORAD_CAT_ID":58047,"ELEMENT_SET_NO":999,"REV_AT_EPOCH":13496,"BSTAR":-3.5399e-5,"MEAN_MOTION_DOT":-1.407e-5,"MEAN_MOTION_DDOT":0}]
